1 08820U 76039A   03347.87956889  .00000002  00000-0  10000-3 0    43
2 08820 109.8342 243.1212 0044354 262.8114  96.7584  6.38664787388537
